<?xml version="1.0" encoding="UTF-8"?>
<gpx version="1.1" creator="bike-rally-assist" xmlns="http://www.topografix.com/GPX/1/1">
  <trk>
    <name>Sample ghat climb</name>
    <trkseg>
    <trkpt lat="18.4521000" lon="73.4123000">
      <ele>620.0</ele>
      <time>2024-11-17T02:30:00.000Z</time>
    </trkpt>
    <trkpt lat="18.4525047" lon="73.4124560">
      <ele>620.4</ele>
      <time>2024-11-17T02:30:01.000Z</time>
    </trkpt>
    <trkpt lat="18.4529232" lon="73.4126275">
      <ele>620.8</ele>
      <time>2024-11-17T02:30:02.000Z</time>
    </trkpt>
    <trkpt lat="18.4533395" lon="73.4128089">
      <ele>621.2</ele>
      <time>2024-11-17T02:30:03.000Z</time>
    </trkpt>
    <trkpt lat="18.4537689" lon="73.4129492">
      <ele>621.6</ele>
      <time>2024-11-17T02:30:04.000Z</time>
    </trkpt>
    <trkpt lat="18.4542127" lon="73.4131107">
      <ele>622.0</ele>
      <time>2024-11-17T02:30:05.000Z</time>
    </trkpt>
    <trkpt lat="18.4546189" lon="73.4132783">
      <ele>622.4</ele>
      <time>2024-11-17T02:30:06.000Z</time>
    </trkpt>
    <trkpt lat="18.4550460" lon="73.4134463">
      <ele>622.8</ele>
      <time>2024-11-17T02:30:07.000Z</time>
    </trkpt>
    <trkpt lat="18.4554537" lon="73.4136070">
      <ele>623.2</ele>
      <time>2024-11-17T02:30:08.000Z</time>
    </trkpt>
    <trkpt lat="18.4555304" lon="73.4136474">
      <ele>623.7</ele>
      <time>2024-11-17T02:30:09.000Z</time>
    </trkpt>
    <trkpt lat="18.4556135" lon="73.4136985">
      <ele>624.2</ele>
      <time>2024-11-17T02:30:10.000Z</time>
    </trkpt>
    <trkpt lat="18.4557091" lon="73.4137659">
      <ele>624.7</ele>
      <time>2024-11-17T02:30:11.000Z</time>
    </trkpt>
    <trkpt lat="18.4557631" lon="73.4138472">
      <ele>625.2</ele>
      <time>2024-11-17T02:30:12.000Z</time>
    </trkpt>
    <trkpt lat="18.4557938" lon="73.4139407">
      <ele>625.7</ele>
      <time>2024-11-17T02:30:13.000Z</time>
    </trkpt>
    <trkpt lat="18.4558272" lon="73.4140328">
      <ele>626.2</ele>
      <time>2024-11-17T02:30:14.000Z</time>
    </trkpt>
    <trkpt lat="18.4558189" lon="73.4141467">
      <ele>626.7</ele>
      <time>2024-11-17T02:30:15.000Z</time>
    </trkpt>
    <trkpt lat="18.4558338" lon="73.4144262">
      <ele>627.1</ele>
      <time>2024-11-17T02:30:16.000Z</time>
    </trkpt>
    <trkpt lat="18.4558444" lon="73.4146320">
      <ele>627.5</ele>
      <time>2024-11-17T02:30:17.000Z</time>
    </trkpt>
    <trkpt lat="18.4558349" lon="73.4148477">
      <ele>627.9</ele>
      <time>2024-11-17T02:30:18.000Z</time>
    </trkpt>
    <trkpt lat="18.4558379" lon="73.4151018">
      <ele>628.3</ele>
      <time>2024-11-17T02:30:19.000Z</time>
    </trkpt>
    <trkpt lat="18.4558687" lon="73.4153401">
      <ele>628.7</ele>
      <time>2024-11-17T02:30:20.000Z</time>
    </trkpt>
    <trkpt lat="18.4558978" lon="73.4155576">
      <ele>629.1</ele>
      <time>2024-11-17T02:30:21.000Z</time>
    </trkpt>
    <trkpt lat="18.4558769" lon="73.4156967">
      <ele>629.6</ele>
      <time>2024-11-17T02:30:22.000Z</time>
    </trkpt>
    <trkpt lat="18.4559096" lon="73.4157549">
      <ele>630.1</ele>
      <time>2024-11-17T02:30:23.000Z</time>
    </trkpt>
    <trkpt lat="18.4559523" lon="73.4158590">
      <ele>630.6</ele>
      <time>2024-11-17T02:30:24.000Z</time>
    </trkpt>
    <trkpt lat="18.4560006" lon="73.4159061">
      <ele>631.1</ele>
      <time>2024-11-17T02:30:25.000Z</time>
    </trkpt>
    <trkpt lat="18.4560907" lon="73.4159863">
      <ele>631.6</ele>
      <time>2024-11-17T02:30:26.000Z</time>
    </trkpt>
    <trkpt lat="18.4561757" lon="73.4160416">
      <ele>632.1</ele>
      <time>2024-11-17T02:30:27.000Z</time>
    </trkpt>
    <trkpt lat="18.4564503" lon="73.4160582">
      <ele>632.5</ele>
      <time>2024-11-17T02:30:28.000Z</time>
    </trkpt>
    <trkpt lat="18.4566139" lon="73.4161146">
      <ele>632.9</ele>
      <time>2024-11-17T02:30:29.000Z</time>
    </trkpt>
    <trkpt lat="18.4567553" lon="73.4161168">
      <ele>633.3</ele>
      <time>2024-11-17T02:30:30.000Z</time>
    </trkpt>
    <trkpt lat="18.4568655" lon="73.4161566">
      <ele>633.8</ele>
      <time>2024-11-17T02:30:31.000Z</time>
    </trkpt>
    <trkpt lat="18.4568584" lon="73.4163371">
      <ele>634.3</ele>
      <time>2024-11-17T02:30:32.000Z</time>
    </trkpt>
    <trkpt lat="18.4567370" lon="73.4164143">
      <ele>634.8</ele>
      <time>2024-11-17T02:30:33.000Z</time>
    </trkpt>
    <trkpt lat="18.4564758" lon="73.4164451">
      <ele>635.2</ele>
      <time>2024-11-17T02:30:34.000Z</time>
    </trkpt>
    <trkpt lat="18.4562452" lon="73.4164113">
      <ele>635.6</ele>
      <time>2024-11-17T02:30:35.000Z</time>
    </trkpt>
    <trkpt lat="18.4560077" lon="73.4164167">
      <ele>636.0</ele>
      <time>2024-11-17T02:30:36.000Z</time>
    </trkpt>
    <trkpt lat="18.4557759" lon="73.4163822">
      <ele>636.4</ele>
      <time>2024-11-17T02:30:37.000Z</time>
    </trkpt>
    <trkpt lat="18.4555970" lon="73.4163737">
      <ele>636.8</ele>
      <time>2024-11-17T02:30:38.000Z</time>
    </trkpt>
    <trkpt lat="18.4554644" lon="73.4164465">
      <ele>637.3</ele>
      <time>2024-11-17T02:30:39.000Z</time>
    </trkpt>
    <trkpt lat="18.4554449" lon="73.4166028">
      <ele>637.8</ele>
      <time>2024-11-17T02:30:40.000Z</time>
    </trkpt>
    <trkpt lat="18.4555551" lon="73.4167092">
      <ele>638.3</ele>
      <time>2024-11-17T02:30:41.000Z</time>
    </trkpt>
    <trkpt lat="18.4557566" lon="73.4167850">
      <ele>638.7</ele>
      <time>2024-11-17T02:30:42.000Z</time>
    </trkpt>
    <trkpt lat="18.4559952" lon="73.4168738">
      <ele>639.1</ele>
      <time>2024-11-17T02:30:43.000Z</time>
    </trkpt>
    <trkpt lat="18.4561836" lon="73.4169191">
      <ele>639.5</ele>
      <time>2024-11-17T02:30:44.000Z</time>
    </trkpt>
    <trkpt lat="18.4563170" lon="73.4169294">
      <ele>639.9</ele>
      <time>2024-11-17T02:30:45.000Z</time>
    </trkpt>
    <trkpt lat="18.4563973" lon="73.4169675">
      <ele>640.4</ele>
      <time>2024-11-17T02:30:46.000Z</time>
    </trkpt>
    <trkpt lat="18.4564990" lon="73.4169922">
      <ele>640.9</ele>
      <time>2024-11-17T02:30:47.000Z</time>
    </trkpt>
    <trkpt lat="18.4565579" lon="73.4170465">
      <ele>641.4</ele>
      <time>2024-11-17T02:30:48.000Z</time>
    </trkpt>
    <trkpt lat="18.4566326" lon="73.4171020">
      <ele>641.9</ele>
      <time>2024-11-17T02:30:49.000Z</time>
    </trkpt>
    <trkpt lat="18.4566920" lon="73.4171608">
      <ele>642.4</ele>
      <time>2024-11-17T02:30:50.000Z</time>
    </trkpt>
    <trkpt lat="18.4567593" lon="73.4172628">
      <ele>642.9</ele>
      <time>2024-11-17T02:30:51.000Z</time>
    </trkpt>
    <trkpt lat="18.4568253" lon="73.4173416">
      <ele>643.4</ele>
      <time>2024-11-17T02:30:52.000Z</time>
    </trkpt>
    <trkpt lat="18.4568664" lon="73.4174104">
      <ele>643.9</ele>
      <time>2024-11-17T02:30:53.000Z</time>
    </trkpt>
    <trkpt lat="18.4569015" lon="73.4174621">
      <ele>644.4</ele>
      <time>2024-11-17T02:30:54.000Z</time>
    </trkpt>
    <trkpt lat="18.4569298" lon="73.4175087">
      <ele>644.9</ele>
      <time>2024-11-17T02:30:55.000Z</time>
    </trkpt>
    <trkpt lat="18.4569755" lon="73.4175775">
      <ele>645.4</ele>
      <time>2024-11-17T02:30:56.000Z</time>
    </trkpt>
    <trkpt lat="18.4570560" lon="73.4176253">
      <ele>645.9</ele>
      <time>2024-11-17T02:30:57.000Z</time>
    </trkpt>
    <trkpt lat="18.4571182" lon="73.4176794">
      <ele>646.4</ele>
      <time>2024-11-17T02:30:58.000Z</time>
    </trkpt>
    <trkpt lat="18.4572093" lon="73.4176972">
      <ele>646.9</ele>
      <time>2024-11-17T02:30:59.000Z</time>
    </trkpt>
    <trkpt lat="18.4572625" lon="73.4176835">
      <ele>647.4</ele>
      <time>2024-11-17T02:31:00.000Z</time>
    </trkpt>
    <trkpt lat="18.4573257" lon="73.4176685">
      <ele>647.9</ele>
      <time>2024-11-17T02:31:01.000Z</time>
    </trkpt>
    <trkpt lat="18.4575572" lon="73.4176187">
      <ele>648.3</ele>
      <time>2024-11-17T02:31:02.000Z</time>
    </trkpt>
    <trkpt lat="18.4577602" lon="73.4176009">
      <ele>648.7</ele>
      <time>2024-11-17T02:31:03.000Z</time>
    </trkpt>
    <trkpt lat="18.4579916" lon="73.4175293">
      <ele>649.1</ele>
      <time>2024-11-17T02:31:04.000Z</time>
    </trkpt>
    <trkpt lat="18.4581683" lon="73.4174729">
      <ele>649.5</ele>
      <time>2024-11-17T02:31:05.000Z</time>
    </trkpt>
    <trkpt lat="18.4583841" lon="73.4174228">
      <ele>649.9</ele>
      <time>2024-11-17T02:31:06.000Z</time>
    </trkpt>
    <trkpt lat="18.4585741" lon="73.4174415">
      <ele>650.3</ele>
      <time>2024-11-17T02:31:07.000Z</time>
    </trkpt>
    <trkpt lat="18.4588270" lon="73.4174449">
      <ele>650.7</ele>
      <time>2024-11-17T02:31:08.000Z</time>
    </trkpt>
    <trkpt lat="18.4590466" lon="73.4173923">
      <ele>651.1</ele>
      <time>2024-11-17T02:31:09.000Z</time>
    </trkpt>
    <trkpt lat="18.4591576" lon="73.4173561">
      <ele>651.6</ele>
      <time>2024-11-17T02:31:10.000Z</time>
    </trkpt>
    <trkpt lat="18.4592188" lon="73.4173035">
      <ele>652.1</ele>
      <time>2024-11-17T02:31:11.000Z</time>
    </trkpt>
    <trkpt lat="18.4593256" lon="73.4172902">
      <ele>652.6</ele>
      <time>2024-11-17T02:31:12.000Z</time>
    </trkpt>
    <trkpt lat="18.4594158" lon="73.4173115">
      <ele>653.1</ele>
      <time>2024-11-17T02:31:13.000Z</time>
    </trkpt>
    <trkpt lat="18.4595414" lon="73.4173200">
      <ele>653.6</ele>
      <time>2024-11-17T02:31:14.000Z</time>
    </trkpt>
    <trkpt lat="18.4596405" lon="73.4173241">
      <ele>654.1</ele>
      <time>2024-11-17T02:31:15.000Z</time>
    </trkpt>
    <trkpt lat="18.4597324" lon="73.4173330">
      <ele>654.6</ele>
      <time>2024-11-17T02:31:16.000Z</time>
    </trkpt>
    <trkpt lat="18.4598239" lon="73.4173460">
      <ele>655.1</ele>
      <time>2024-11-17T02:31:17.000Z</time>
    </trkpt>
    <trkpt lat="18.4598983" lon="73.4173793">
      <ele>655.6</ele>
      <time>2024-11-17T02:31:18.000Z</time>
    </trkpt>
    <trkpt lat="18.4599786" lon="73.4173824">
      <ele>656.1</ele>
      <time>2024-11-17T02:31:19.000Z</time>
    </trkpt>
    <trkpt lat="18.4600944" lon="73.4174084">
      <ele>656.6</ele>
      <time>2024-11-17T02:31:20.000Z</time>
    </trkpt>
    <trkpt lat="18.4601826" lon="73.4174370">
      <ele>657.1</ele>
      <time>2024-11-17T02:31:21.000Z</time>
    </trkpt>
    <trkpt lat="18.4602697" lon="73.4174693">
      <ele>657.6</ele>
      <time>2024-11-17T02:31:22.000Z</time>
    </trkpt>
    <trkpt lat="18.4603556" lon="73.4175051">
      <ele>658.1</ele>
      <time>2024-11-17T02:31:23.000Z</time>
    </trkpt>
    <trkpt lat="18.4604397" lon="73.4175452">
      <ele>658.6</ele>
      <time>2024-11-17T02:31:24.000Z</time>
    </trkpt>
    <trkpt lat="18.4605223" lon="73.4175886">
      <ele>659.1</ele>
      <time>2024-11-17T02:31:25.000Z</time>
    </trkpt>
    <trkpt lat="18.4606032" lon="73.4176355">
      <ele>659.6</ele>
      <time>2024-11-17T02:31:26.000Z</time>
    </trkpt>
    <trkpt lat="18.4610642" lon="73.4179199">
      <ele>660.0</ele>
      <time>2024-11-17T02:31:27.000Z</time>
    </trkpt>
    <trkpt lat="18.4615378" lon="73.4182044">
      <ele>660.4</ele>
      <time>2024-11-17T02:31:28.000Z</time>
    </trkpt>
    <trkpt lat="18.4620051" lon="73.4184888">
      <ele>660.8</ele>
      <time>2024-11-17T02:31:29.000Z</time>
    </trkpt>
    <trkpt lat="18.4624724" lon="73.4187732">
      <ele>661.2</ele>
      <time>2024-11-17T02:31:30.000Z</time>
    </trkpt>
    <trkpt lat="18.4629397" lon="73.4190577">
      <ele>661.6</ele>
      <time>2024-11-17T02:31:31.000Z</time>
    </trkpt>
    <trkpt lat="18.4629834" lon="73.4191191">
      <ele>662.1</ele>
      <time>2024-11-17T02:31:32.000Z</time>
    </trkpt>
    <trkpt lat="18.4630459" lon="73.4191763">
      <ele>662.6</ele>
      <time>2024-11-17T02:31:33.000Z</time>
    </trkpt>
    <trkpt lat="18.4630594" lon="73.4192600">
      <ele>663.1</ele>
      <time>2024-11-17T02:31:34.000Z</time>
    </trkpt>
    <trkpt lat="18.4630636" lon="73.4193411">
      <ele>663.6</ele>
      <time>2024-11-17T02:31:35.000Z</time>
    </trkpt>
    <trkpt lat="18.4630303" lon="73.4194121">
      <ele>664.1</ele>
      <time>2024-11-17T02:31:36.000Z</time>
    </trkpt>
    <trkpt lat="18.4630115" lon="73.4194868">
      <ele>664.6</ele>
      <time>2024-11-17T02:31:37.000Z</time>
    </trkpt>
    <trkpt lat="18.4629531" lon="73.4195416">
      <ele>665.1</ele>
      <time>2024-11-17T02:31:38.000Z</time>
    </trkpt>
    <trkpt lat="18.4628822" lon="73.4195765">
      <ele>665.6</ele>
      <time>2024-11-17T02:31:39.000Z</time>
    </trkpt>
    <trkpt lat="18.4628048" lon="73.4195884">
      <ele>666.1</ele>
      <time>2024-11-17T02:31:40.000Z</time>
    </trkpt>
    <trkpt lat="18.4625810" lon="73.4195878">
      <ele>666.5</ele>
      <time>2024-11-17T02:31:41.000Z</time>
    </trkpt>
    <trkpt lat="18.4623552" lon="73.4195884">
      <ele>666.9</ele>
      <time>2024-11-17T02:31:42.000Z</time>
    </trkpt>
    <trkpt lat="18.4621303" lon="73.4195884">
      <ele>667.3</ele>
      <time>2024-11-17T02:31:43.000Z</time>
    </trkpt>
    <trkpt lat="18.4620854" lon="73.4195884">
      <ele>667.7</ele>
      <time>2024-11-17T02:31:44.000Z</time>
    </trkpt>
    <trkpt lat="18.4619915" lon="73.4195959">
      <ele>668.2</ele>
      <time>2024-11-17T02:31:45.000Z</time>
    </trkpt>
    <trkpt lat="18.4619234" lon="73.4195977">
      <ele>668.7</ele>
      <time>2024-11-17T02:31:46.000Z</time>
    </trkpt>
    <trkpt lat="18.4618143" lon="73.4196524">
      <ele>669.2</ele>
      <time>2024-11-17T02:31:47.000Z</time>
    </trkpt>
    <trkpt lat="18.4617308" lon="73.4197038">
      <ele>669.7</ele>
      <time>2024-11-17T02:31:48.000Z</time>
    </trkpt>
    <trkpt lat="18.4616572" lon="73.4197656">
      <ele>670.2</ele>
      <time>2024-11-17T02:31:49.000Z</time>
    </trkpt>
    <trkpt lat="18.4615932" lon="73.4198383">
      <ele>670.7</ele>
      <time>2024-11-17T02:31:50.000Z</time>
    </trkpt>
    <trkpt lat="18.4615402" lon="73.4199203">
      <ele>671.2</ele>
      <time>2024-11-17T02:31:51.000Z</time>
    </trkpt>
    <trkpt lat="18.4614872" lon="73.4200022">
      <ele>671.7</ele>
      <time>2024-11-17T02:31:52.000Z</time>
    </trkpt>
    <trkpt lat="18.4614232" lon="73.4200750">
      <ele>672.2</ele>
      <time>2024-11-17T02:31:53.000Z</time>
    </trkpt>
    <trkpt lat="18.4613654" lon="73.4201473">
      <ele>672.7</ele>
      <time>2024-11-17T02:31:54.000Z</time>
    </trkpt>
    <trkpt lat="18.4613001" lon="73.4202044">
      <ele>673.2</ele>
      <time>2024-11-17T02:31:55.000Z</time>
    </trkpt>
    <trkpt lat="18.4612333" lon="73.4202495">
      <ele>673.7</ele>
      <time>2024-11-17T02:31:56.000Z</time>
    </trkpt>
    <trkpt lat="18.4611505" lon="73.4202056">
      <ele>674.2</ele>
      <time>2024-11-17T02:31:57.000Z</time>
    </trkpt>
    <trkpt lat="18.4610669" lon="73.4202499">
      <ele>674.7</ele>
      <time>2024-11-17T02:31:58.000Z</time>
    </trkpt>
    <trkpt lat="18.4606019" lon="73.4202540">
      <ele>675.1</ele>
      <time>2024-11-17T02:31:59.000Z</time>
    </trkpt>
    <trkpt lat="18.4601645" lon="73.4202742">
      <ele>675.5</ele>
      <time>2024-11-17T02:32:00.000Z</time>
    </trkpt>
    <trkpt lat="18.4596805" lon="73.4202743">
      <ele>675.9</ele>
      <time>2024-11-17T02:32:01.000Z</time>
    </trkpt>
    <trkpt lat="18.4592264" lon="73.4202874">
      <ele>676.3</ele>
      <time>2024-11-17T02:32:02.000Z</time>
    </trkpt>
    <trkpt lat="18.4588081" lon="73.4202916">
      <ele>676.7</ele>
      <time>2024-11-17T02:32:03.000Z</time>
    </trkpt>
    <trkpt lat="18.4587006" lon="73.4202377">
      <ele>677.2</ele>
      <time>2024-11-17T02:32:04.000Z</time>
    </trkpt>
    <trkpt lat="18.4586165" lon="73.4202058">
      <ele>677.7</ele>
      <time>2024-11-17T02:32:05.000Z</time>
    </trkpt>
    <trkpt lat="18.4585245" lon="73.4201563">
      <ele>678.2</ele>
      <time>2024-11-17T02:32:06.000Z</time>
    </trkpt>
    <trkpt lat="18.4583929" lon="73.4201177">
      <ele>678.7</ele>
      <time>2024-11-17T02:32:07.000Z</time>
    </trkpt>
    <trkpt lat="18.4582660" lon="73.4200990">
      <ele>679.2</ele>
      <time>2024-11-17T02:32:08.000Z</time>
    </trkpt>
    <trkpt lat="18.4582386" lon="73.4200752">
      <ele>679.7</ele>
      <time>2024-11-17T02:32:09.000Z</time>
    </trkpt>
    <trkpt lat="18.4581501" lon="73.4200561">
      <ele>680.2</ele>
      <time>2024-11-17T02:32:10.000Z</time>
    </trkpt>
    <trkpt lat="18.4580627" lon="73.4199958">
      <ele>680.7</ele>
      <time>2024-11-17T02:32:11.000Z</time>
    </trkpt>
    <trkpt lat="18.4579780" lon="73.4199036">
      <ele>681.2</ele>
      <time>2024-11-17T02:32:12.000Z</time>
    </trkpt>
    <trkpt lat="18.4579597" lon="73.4198095">
      <ele>681.7</ele>
      <time>2024-11-17T02:32:13.000Z</time>
    </trkpt>
    <trkpt lat="18.4578474" lon="73.4197564">
      <ele>682.2</ele>
      <time>2024-11-17T02:32:14.000Z</time>
    </trkpt>
    <trkpt lat="18.4577719" lon="73.4197272">
      <ele>682.7</ele>
      <time>2024-11-17T02:32:15.000Z</time>
    </trkpt>
    <trkpt lat="18.4577500" lon="73.4197127">
      <ele>683.2</ele>
      <time>2024-11-17T02:32:16.000Z</time>
    </trkpt>
    <trkpt lat="18.4577468" lon="73.4196463">
      <ele>683.7</ele>
      <time>2024-11-17T02:32:17.000Z</time>
    </trkpt>
    <trkpt lat="18.4577151" lon="73.4195588">
      <ele>684.2</ele>
      <time>2024-11-17T02:32:18.000Z</time>
    </trkpt>
    <trkpt lat="18.4577328" lon="73.4194615">
      <ele>684.7</ele>
      <time>2024-11-17T02:32:19.000Z</time>
    </trkpt>
    <trkpt lat="18.4576543" lon="73.4193555">
      <ele>685.2</ele>
      <time>2024-11-17T02:32:20.000Z</time>
    </trkpt>
    <trkpt lat="18.4576649" lon="73.4192839">
      <ele>685.7</ele>
      <time>2024-11-17T02:32:21.000Z</time>
    </trkpt>
    <trkpt lat="18.4576803" lon="73.4191890">
      <ele>686.2</ele>
      <time>2024-11-17T02:32:22.000Z</time>
    </trkpt>
    <trkpt lat="18.4577097" lon="73.4183927">
      <ele>686.6</ele>
      <time>2024-11-17T02:32:23.000Z</time>
    </trkpt>
    <trkpt lat="18.4577165" lon="73.4176521">
      <ele>687.0</ele>
      <time>2024-11-17T02:32:24.000Z</time>
    </trkpt>
    <trkpt lat="18.4576601" lon="73.4169144">
      <ele>687.4</ele>
      <time>2024-11-17T02:32:25.000Z</time>
    </trkpt>
    <trkpt lat="18.4576313" lon="73.4161385">
      <ele>687.8</ele>
      <time>2024-11-17T02:32:26.000Z</time>
    </trkpt>
    <trkpt lat="18.4576729" lon="73.4153977">
      <ele>688.2</ele>
      <time>2024-11-17T02:32:27.000Z</time>
    </trkpt>
    </trkseg>
  </trk>
</gpx>
